MALLIGYONG-1            
1 58400U 23179A   24059.90586280  .00005268  00000+0  23898-3 0  9990
2 58400  97.4190 308.3844 0007873 289.4088  70.6296 15.21218520 15107
